INTELSAT 26 (IS-26)
1 24732U 97007A   21168.14162569 -.00000017  00000-0  00000-0 0  9992
2 24732   9.5514  40.8587 0007030  22.6113 318.0225  1.00341133 54423
GALAXY 25 (G-25)
1 24812U 97026A   21168.56587834  .00000162  00000-0  00000-0 0  9994
2 24812   2.7978  87.2090 0006338   8.1663  47.2395  1.00273381 88070
INTELSAT 5 (IS-5)
1 24916U 97046A   21168.58977256  .00000094  00000-0  00000+0 0  9997
2 24916   6.4613  63.4475 0004403  17.3904 260.5159  1.00273839 87318
GALAXY 11 (G-11)
1 26038U 99071A   21168.54075441 -.00000155  00000-0  00000+0 0  9994
2 26038   2.0855  92.3031 0000512 261.7921  13.4862  1.00271006 78775
INTELSAT 9 (IS-9)
1 26451U 00043A   21168.18452359 -.00000281  00000-0  00000-0 0  9992
2 26451   6.4466  63.6333 0003450  20.5767 197.8827  1.00271918 25838
INTELSAT 12 (IS-12)
1 26590U 00068A   21168.42851486  .00000019  00000-0  00000-0 0  9992
2 26590   3.7937  83.0124 0008474   0.6246  40.7523  1.00272009 33404
INTELSAT 1R (IS-1R)
1 26608U 00072A   21168.57700122 -.00000132  00000-0  00000-0 0  9990
2 26608   3.5995  83.5653 0000550 267.9233 279.3519  1.00271079 23016
INTELSAT 10 (IS-10)
1 26766U 01019A   21167.58976038  .00000060  00000-0  00000+0 0  9996
2 26766   4.7223  76.3451 0006806 358.4821 219.9188  1.00407805 73614
INTELSAT 901 (IS-901)
1 26824U 01024A   21168.48195918 -.00000195  00000-0  00000-0 0  9998
2 26824   0.0185  15.3074 0000955  77.3246 319.3322  1.00269572  4667
INTELSAT 902 (IS-902)
1 26900U 01039A   21168.54912905 -.00000275  00000-0  00000-0 0  9998
2 26900   1.5017  92.9547 0003505   8.5751 312.0730  1.00272347 72380
INTELSAT 904 (IS-904)
1 27380U 02007A   21168.62516775 -.00000207  00000-0  00000+0 0  9995
2 27380   2.3364  89.7315 0003235 353.7128  18.2027  1.00270602 70785
DIRECTV 5 (TEMPO 1)
1 27426U 02023A   21168.61367660 -.00000048  00000-0  00000+0 0  9993
2 27426   0.2187  97.6690 0003418 356.7566 282.4583  1.00271170 69996
INTELSAT 905 (IS-905)
1 27438U 02027A   21168.48239536 -.00000177  00000-0  00000-0 0  9999
2 27438   2.1575  90.5410 0002795 345.7170 338.8584  1.00274812 33050
GALAXY 3C (G-3C)
1 27445U 02030A   21168.54031823 -.00000143  00000-0  00000-0 0  9990
2 27445   0.0182 316.9836 0001777  13.2796  35.2235  1.00269132 28195
INTELSAT 906 (IS-906)
1 27513U 02041A   21168.57207209  .00000022  00000-0  00000-0 0  9999
2 27513   1.1673  94.7464 0003177 350.2580  91.1226  1.00271329 68722
GALAXY 12 (G-12)
1 27715U 03013B   21168.59752743  .00000066  00000-0  00000-0 0  9991
2 27715   2.3714  89.2367 0001889 356.2795 266.6520  1.00270527 33781
GALAXY 23 (G-23)
1 27854U 03034A   21168.60512497  .00000021  00000-0  00000+0 0  9990
2 27854   0.0299  72.2763 0003293  29.3026 261.3230  1.00272263 70247
GALAXY 13 (HORIZONS 1)
1 27954U 03044A   21168.48477006  .00000056  00000-0  00000-0 0  9993
2 27954   0.0454  90.0162 0001193 101.3827 122.0619  1.00271898 28261
INTELSAT 10-02
1 28358U 04022A   21168.67896449 -.00000004  00000-0  00000+0 0  9999
2 28358   0.0174  10.4125 0001082  67.9895  71.1815  1.00270456 62329
XM-3 (RHYTHM)
1 28626U 05008A   21168.54232464 -.00000198  00000-0  00000+0 0  9993
2 28626   0.0150 348.6813 0002248 102.3704 285.0381  1.00270717 59767
DIRECTV 8
1 28659U 05019A   21168.60636679  .00000009  00000-0  00000-0 0  9995
2 28659   0.0122  63.0198 0002898  19.9603 282.3367  1.00271387 58765
GALAXY 28 (G-28)
1 28702U 05022A   21168.41361451 -.00000177  00000-0  00000-0 0  9997
2 28702   0.0110  84.5308 0003160 284.1287 317.1135  1.00271509 33678
GALAXY 14 (G-14)
1 28790U 05030A   21168.68452181 -.00000080  00000-0  00000+0 0  9995
2 28790   0.3546  95.0716 0002647 334.3267  66.7896  1.00505324 57993
GALAXY 15 (G-15)
1 28884U 05041A   21168.59403928  .00000087  00000-0  00000-0 0  9993
2 28884   0.0231 302.3768 0001687 148.5320 255.9917  1.00271149 57300
SPACEWAY 2
1 28903U 05046B   21168.58773124  .00000111  00000-0  00000-0 0  9995
2 28903   1.0525  91.8612 0000870  12.2094 234.6633  1.00271401 33039
GALAXY 16 (G-16)
1 29236U 06023A   21168.62364163 -.00000119  00000-0  00000-0 0  9994
2 29236   0.0185  24.1515 0002597  68.5483 298.8897  1.00273083 54669
DIRECTV 9S
1 29494U 06043A   21168.61086105 -.00000106  00000-0  00000+0 0  9993
2 29494   0.0390 162.6701 0002955 281.7577 300.3660  1.00271142 53805
XM-4 (BLUES)
1 29520U 06049A   21168.61005035 -.00000015  00000-0  00000-0 0  9992
2 29520   0.0123 352.3527 0000326  35.3027 342.8221  1.00271445 33163
GALAXY 17 (G-17)
1 31307U 07016B   21168.54119059 -.00000167  00000-0  00000-0 0  9995
2 31307   0.0338  72.3026 0003315  10.8123 286.7373  1.00277770 51493
DIRECTV 10
1 31862U 07032A   21168.62117208 -.00000095  00000-0  00000+0 0  9991
2 31862   0.0028 169.4689 0000296 285.1978 292.2464  1.00270271 51108
SPACEWAY 3
1 32018U 07036A   21168.54040545 -.00000144  00000-0  00000-0 0  9995
2 32018   0.0239 133.3773 0000157 266.6988 325.5266  1.00271276 28246
INTELSAT 11 (IS-11)
1 32253U 07044B   21168.47899316 -.00000261  00000-0  00000-0 0  9995
2 32253   0.0184  12.6583 0002023  92.3419 290.4000  1.00270832 50193
HORIZONS 2
1 32388U 07063B   21168.56507699 -.00000175  00000-0  00000-0 0  9999
2 32388   0.0126  39.2392 0002894  43.4676 111.6003  1.00272698 49512
DIRECTV 11
1 32729U 08013A   21168.61129723 -.00000118  00000-0  00000+0 0  9994
2 32729   0.0416 160.0155 0000168 330.0433 256.9127  1.00268998 48631
GALAXY 18 (G-18)
1 32951U 08024A   21168.60267031  .00000033  00000-0  00000-0 0  9993
2 32951   0.0144  41.6926 0003165  47.4538 270.8883  1.00272570 27543
INTELSAT 25 (IS-25)
1 33153U 08034A   21168.48126130 -.00000216  00000-0  00000-0 0  9993
2 33153   0.0123  42.8891 0003016  37.6896 327.1244  1.00274285 47388
GALAXY 19 (G-19)
1 33376U 08045A   21168.51188042 -.00000131  00000-0  00000-0 0  9992
2 33376   0.0198 333.8153 0003280 117.4385 261.9992  1.00272176 46598
FM-5
1 35493U 09034A   21168.61391432 -.00000193  00000-0  00000+0 0  9990
2 35493   0.0154 326.0428 0000909  54.4564  20.4410  1.00273023 43676
INTELSAT 14 (IS-14)
1 36097U 09064A   21168.40679309 -.00000266  00000-0  00000-0 0  9995
2 36097   0.0178  27.2508 0002526  61.1143 278.9557  1.00272421 42309
INTELSAT 15 (IS-15)
1 36106U 09067A   21168.56507699 -.00000177  00000-0  00000-0 0  9999
2 36106   0.0105 329.9128 0002393 123.6885 100.9922  1.00269310 22928
DIRECTV 12
1 36131U 09075A   21168.62117149 -.00000096  00000-0  00000+0 0  9999
2 36131   0.0132 188.9745 0000313 205.6276 352.3970  1.00270496 42081
INTELSAT 16 (IS-16)
1 36397U 10006A   21168.54406937 -.00000237  00000-0  00000+0 0  9993
2 36397   0.0118 317.7000 0001976 124.8126 303.1639  1.00271077 41415
XM-5
1 37185U 10053A   21168.47053128 -.00000197  00000-0  00000-0 0  9999
2 37185   0.0269 238.5056 0004714 358.2621 113.4045  1.00271424 39174
INTELSAT 17 (IS-17)
1 37238U 10065B   21168.59491758  .00000006  00000-0  00000-0 0  9997
2 37238   0.0119 280.7705 0002494 175.8246  89.6194  1.00272037 34946
INTELSAT NEW DAWN
1 37392U 11016A   21168.49408498  .00000163  00000-0  00000-0 0  9997
2 37392   0.0300 250.8109 0001262 160.3266  65.4900  1.00272062 34987
INTELSAT 18 (IS-18)
1 37834U 11056A   21168.73876025  .00000060  00000-0  00000+0 0  9999
2 37834   0.0168 350.2055 0002343 108.5787 253.3704  1.00271907 35537
INTELSAT 22 (IS-22)
1 38098U 12011A   21168.50193620 -.00000052  00000-0  00000-0 0  9995
2 38098   0.0303  82.6336 0002755  14.8686  61.2664  1.00272520 33512
INTELSAT 19 (IS-19)
1 38356U 12030A   21168.54976168 -.00000049  00000-0  00000-0 0  9999
2 38356   0.0188 333.8571 0003052 114.7012 181.3721  1.00271435 32135
INTELSAT 20 (IS-20)
1 38740U 12043A   21168.42827356 -.00000017  00000-0  00000-0 0  9996
2 38740   0.0038  35.6411 0001125 160.5245 292.3950  1.00270739 32449
INTELSAT 21 (IS-21)
1 38749U 12045A   21168.54910403 -.00000277  00000-0  00000+0 0  9993
2 38749   0.0165  35.0093 0002184  51.5927 319.0901  1.00273099 32334
INTELSAT 23 (IS-23)
1 38867U 12057A   21168.44374100 -.00000277  00000-0  00000-0 0  9995
2 38867   0.0133   2.4578 0001560  64.6442 305.5693  1.00272633 31633
FM-6
1 39360U 13058A   21168.49462713 -.00000009  00000-0  00000-0 0  9992
2 39360   0.0221 304.6508 0000378   7.5557  15.6453  1.00272714 27750
INTELSAT 30 (IS-30)
1 40271U 14062A   21168.61190789 -.00000141  00000-0  00000+0 0  9992
2 40271   0.0192 344.6730 0002716  61.6642 344.9699  1.00253452 24468
DIRECTV 14
1 40333U 14078B   21168.43974255 -.00000118  00000-0  00000-0 0  9991
2 40333   0.0351 122.3059 0000258 244.7194 317.9436  1.00273496 23743
DIRECTV 15
1 40663U 15026A   21168.62117185 -.00000093  00000-0  00000+0 0  9994
2 40663   0.0251  79.6838 0000791 197.8056 109.3493  1.00254678 22234
SKY MEXICO-1
1 40664U 15026B   21168.55465859 -.00000227  00000-0  00000+0 0  9990
2 40664   0.0122 332.2101 0002002 107.6205 307.0968  1.00271688 22228
INTELSAT 34 (IS-34)
1 40874U 15039A   21168.54910403 -.00000278  00000-0  00000+0 0  9992
2 40874   0.0142 309.7793 0000623  43.2731  55.1504  1.00269457 21312
INTELSAT 31 (IS-31)
1 41581U 16035A   21168.54031823 -.00000143  00000-0  00000-0 0  9997
2 41581   0.0159 268.6525 0002161 309.8251 146.9788  1.00269782 18296
INTELSAT 36 (IS-36)
1 41747U 16053A   21168.42827356 -.00000017  00000-0  00000-0 0  9992
2 41747   0.0105 354.9217 0002360  17.7293 115.9173  1.00270406 17669
INTELSAT 33E (IS-33E)
1 41748U 16053B   21168.49949360  .00000056  00000-0  00000-0 0  9992
2 41748   0.0190   4.5523 0001765  73.5925  67.6461  1.00270306 17945
INTELSAT 32E (IS-32E)
1 41945U 17007B   21168.47890594 -.00000261  00000-0  00000-0 0  9992
2 41945   0.0169  29.5651 0000957 324.5162  41.0903  1.00271418 15921
INTELSAT 35E (IS-35E)
1 42818U 17041A   21168.48065065 -.00000230  00000-0  00000-0 0  9994
2 42818   0.0278 244.5804 0001619 190.5028 329.3905  1.00273461 14517
INTELSAT 37E (IS-37E)
1 42950U 17059A   21168.39632484 -.00000133  00000-0  00000-0 0  9997
2 42950   0.0221 345.6358 0002271 111.2987 293.6190  1.00270490 13751
AZERSPACE 2 (IS-38)
1 43632U 18074A   21168.49652758  .00000144  00000-0  00000-0 0  9991
2 43632   0.0160  32.6108 0001374  58.0048  39.2126  1.00271570 10183
HORIZONS 3E
1 43633U 18074B   21168.55338795 -.00000023  00000-0  00000-0 0  9998
2 43633   0.0267 177.4114 0000446 114.1230 342.7031  1.00271205 10039
AT&T T-16
1 44333U 19034A   21168.62242219 -.00000108  00000-0  00000-0 0  9990
2 44333   0.0183 329.6279 0001095 341.8556  77.8122  1.00272037  7338
INTELSAT 39 (IS-39)
1 44476U 19049B   21168.49984255  .00000041  00000-0  00000-0 0  9997
2 44476   0.0018  20.0934 0000513 321.4227 166.3395  1.00270556  6852
GALAXY 30
1 46114U 20056C   21168.60144152  .00000044  00000-0  00000-0 0  9998
2 46114   0.0210 348.4916 0001893 102.9442 266.1478  1.00271387  3027